STARLINK-36962          
1 68269U 26055H   26090.50002315 -.01273497  00000+0 -47574-2 0  9995
2 68269  53.1576 228.0358 0000899  71.9000 173.2595 15.89669693  3143
STARLINK-37028          
1 68270U 26055J   26090.50002315 -.01297188  00000+0 -48733-2 0  9998
2 68270  53.1576 228.0123 0000896  74.4175 181.7748 15.89606904  3143
STARLINK-37029          
1 68271U 26055K   26090.50002315 -.01289184  00000+0 -48512-2 0  9991
2 68271  53.1575 228.0215 0000839  71.2042 180.7879 15.89559420  3144
STARLINK-36974          
1 68272U 26055L   26090.58335648 -.01308467  00000+0 -49783-2 0  9995
2 68272  53.1574 227.5799 0000888  66.7667 311.4668 15.89381925  3154
STARLINK-37019          
1 68273U 26055M   26090.58335648 -.01312171  00000+0 -49768-2 0  9996
2 68273  53.1575 227.5713 0000786  65.1117 316.9498 15.89451504  3154
STARLINK-37129          
1 68274U 26055N   26090.58335648 -.01319973  00000+0 -49966-2 0  9994
2 68274  53.1573 227.5628 0000863  65.5227 320.7544 15.89504519  3150
STARLINK-37123          
1 68275U 26055P   26090.58335648 -.01317805  00000+0 -49686-2 0  9996
2 68275  53.1576 227.5553 0000896  65.4484 324.5599 15.89577782  3155
STARLINK-37125          
1 68276U 26055Q   26090.58335648 -.01330618  00000+0 -50160-2 0  9993
2 68276  53.1573 227.5455 0000900  65.7956 328.9938 15.89606641  3159
STARLINK-36989          
1 68277U 26055R   26090.50002315 -.01346886  00000+0 -49810-2 0  9992
2 68277  53.1574 227.9414 0000848  79.6900 210.7097 15.90012831  3141
STARLINK-36982          
1 68278U 26055S   26090.50002315 -.01349428  00000+0 -50079-2 0  9997
2 68278  53.1574 227.9505 0000824  78.0209 208.3174 15.89950128  3149
STARLINK-36934          
1 68279U 26055T   26090.50002315 -.01346441  00000+0 -50113-2 0  9999
2 68279  53.1574 227.9587 0000830  74.7350 207.5140 15.89887880  3145
STARLINK-37070          
1 68280U 26055U   26090.58335648 -.01351810  00000+0 -50547-2 0  9994
2 68280  53.1575 227.5092 0001051  54.9356 357.4014 15.89805797  3150
