CCSDS_OMM_VERS = 2.0
CREATION_DATE  = 
ORIGINATOR     = 

OBJECT_NAME    = STARLINK-36962
OBJECT_ID      = 2026-055H
CENTER_NAME    = EARTH
REF_FRAME      = TEME
TIME_SYSTEM    = UTC
MEAN_ELEMENT_THEORY = SGP/SGP4

EPOCH          = 2026-03-31T12:00:02.000160
MEAN_MOTION    = 15.89669693
ECCENTRICITY   = .00008995
INCLINATION    = 53.1576
RA_OF_ASC_NODE = 228.0358
ARG_OF_PERICENTER = 71.9000
MEAN_ANOMALY   = 173.2595

EPHEMERIS_TYPE = 0
CLASSIFICATION_TYPE = U
NORAD_CAT_ID   = 68269
ELEMENT_SET_NO = 999
REV_AT_EPOCH   = 314
BSTAR          = -.47574277E-2
MEAN_MOTION_DOT = -.1273497E-1
MEAN_MOTION_DDOT = 0

CCSDS_OMM_VERS = 2.0
CREATION_DATE  = 
ORIGINATOR     = 

OBJECT_NAME    = STARLINK-37028
OBJECT_ID      = 2026-055J
CENTER_NAME    = EARTH
REF_FRAME      = TEME
TIME_SYSTEM    = UTC
MEAN_ELEMENT_THEORY = SGP/SGP4

EPOCH          = 2026-03-31T12:00:02.000160
MEAN_MOTION    = 15.89606904
ECCENTRICITY   = .00008968
INCLINATION    = 53.1576
RA_OF_ASC_NODE = 228.0123
ARG_OF_PERICENTER = 74.4175
MEAN_ANOMALY   = 181.7748

EPHEMERIS_TYPE = 0
CLASSIFICATION_TYPE = U
NORAD_CAT_ID   = 68270
ELEMENT_SET_NO = 999
REV_AT_EPOCH   = 314
BSTAR          = -.48732627E-2
MEAN_MOTION_DOT = -.1297188E-1
MEAN_MOTION_DDOT = 0

CCSDS_OMM_VERS = 2.0
CREATION_DATE  = 
ORIGINATOR     = 

OBJECT_NAME    = STARLINK-37029
OBJECT_ID      = 2026-055K
CENTER_NAME    = EARTH
REF_FRAME      = TEME
TIME_SYSTEM    = UTC
MEAN_ELEMENT_THEORY = SGP/SGP4

EPOCH          = 2026-03-31T12:00:02.000160
MEAN_MOTION    = 15.89559420
ECCENTRICITY   = .0000839
INCLINATION    = 53.1575
RA_OF_ASC_NODE = 228.0215
ARG_OF_PERICENTER = 71.2042
MEAN_ANOMALY   = 180.7879

EPHEMERIS_TYPE = 0
CLASSIFICATION_TYPE = U
NORAD_CAT_ID   = 68271
ELEMENT_SET_NO = 999
REV_AT_EPOCH   = 314
BSTAR          = -.48511794E-2
MEAN_MOTION_DOT = -.1289184E-1
MEAN_MOTION_DDOT = 0

CCSDS_OMM_VERS = 2.0
CREATION_DATE  = 
ORIGINATOR     = 

OBJECT_NAME    = STARLINK-36974
OBJECT_ID      = 2026-055L
CENTER_NAME    = EARTH
REF_FRAME      = TEME
TIME_SYSTEM    = UTC
MEAN_ELEMENT_THEORY = SGP/SGP4

EPOCH          = 2026-03-31T14:00:01.999872
MEAN_MOTION    = 15.89381925
ECCENTRICITY   = .00008884
INCLINATION    = 53.1574
RA_OF_ASC_NODE = 227.5799
ARG_OF_PERICENTER = 66.7667
MEAN_ANOMALY   = 311.4668

EPHEMERIS_TYPE = 0
CLASSIFICATION_TYPE = U
NORAD_CAT_ID   = 68272
ELEMENT_SET_NO = 999
REV_AT_EPOCH   = 315
BSTAR          = -.49782865E-2
MEAN_MOTION_DOT = -.1308467E-1
MEAN_MOTION_DDOT = 0

CCSDS_OMM_VERS = 2.0
CREATION_DATE  = 
ORIGINATOR     = 

OBJECT_NAME    = STARLINK-37019
OBJECT_ID      = 2026-055M
CENTER_NAME    = EARTH
REF_FRAME      = TEME
TIME_SYSTEM    = UTC
MEAN_ELEMENT_THEORY = SGP/SGP4

EPOCH          = 2026-03-31T14:00:01.999872
MEAN_MOTION    = 15.89451504
ECCENTRICITY   = .00007863
INCLINATION    = 53.1575
RA_OF_ASC_NODE = 227.5713
ARG_OF_PERICENTER = 65.1117
MEAN_ANOMALY   = 316.9498

EPHEMERIS_TYPE = 0
CLASSIFICATION_TYPE = U
NORAD_CAT_ID   = 68273
ELEMENT_SET_NO = 999
REV_AT_EPOCH   = 315
BSTAR          = -.49768295E-2
MEAN_MOTION_DOT = -.1312171E-1
MEAN_MOTION_DDOT = 0

CCSDS_OMM_VERS = 2.0
CREATION_DATE  = 
ORIGINATOR     = 

OBJECT_NAME    = STARLINK-37129
OBJECT_ID      = 2026-055N
CENTER_NAME    = EARTH
REF_FRAME      = TEME
TIME_SYSTEM    = UTC
MEAN_ELEMENT_THEORY = SGP/SGP4

EPOCH          = 2026-03-31T14:00:01.999872
MEAN_MOTION    = 15.89504519
ECCENTRICITY   = .00008636
INCLINATION    = 53.1573
RA_OF_ASC_NODE = 227.5628
ARG_OF_PERICENTER = 65.5227
MEAN_ANOMALY   = 320.7544

EPHEMERIS_TYPE = 0
CLASSIFICATION_TYPE = U
NORAD_CAT_ID   = 68274
ELEMENT_SET_NO = 999
REV_AT_EPOCH   = 315
BSTAR          = -.49966391E-2
MEAN_MOTION_DOT = -.1319973E-1
MEAN_MOTION_DDOT = 0

CCSDS_OMM_VERS = 2.0
CREATION_DATE  = 
ORIGINATOR     = 

OBJECT_NAME    = STARLINK-37123
OBJECT_ID      = 2026-055P
CENTER_NAME    = EARTH
REF_FRAME      = TEME
TIME_SYSTEM    = UTC
MEAN_ELEMENT_THEORY = SGP/SGP4

EPOCH          = 2026-03-31T14:00:01.999872
MEAN_MOTION    = 15.89577782
ECCENTRICITY   = .00008969
INCLINATION    = 53.1576
RA_OF_ASC_NODE = 227.5553
ARG_OF_PERICENTER = 65.4484
MEAN_ANOMALY   = 324.5599

EPHEMERIS_TYPE = 0
CLASSIFICATION_TYPE = U
NORAD_CAT_ID   = 68275
ELEMENT_SET_NO = 999
REV_AT_EPOCH   = 315
BSTAR          = -.49685622E-2
MEAN_MOTION_DOT = -.1317805E-1
MEAN_MOTION_DDOT = 0

CCSDS_OMM_VERS = 2.0
CREATION_DATE  = 
ORIGINATOR     = 

OBJECT_NAME    = STARLINK-37125
OBJECT_ID      = 2026-055Q
CENTER_NAME    = EARTH
REF_FRAME      = TEME
TIME_SYSTEM    = UTC
MEAN_ELEMENT_THEORY = SGP/SGP4

EPOCH          = 2026-03-31T14:00:01.999872
MEAN_MOTION    = 15.89606641
ECCENTRICITY   = .00009002
INCLINATION    = 53.1573
RA_OF_ASC_NODE = 227.5455
ARG_OF_PERICENTER = 65.7956
MEAN_ANOMALY   = 328.9938

EPHEMERIS_TYPE = 0
CLASSIFICATION_TYPE = U
NORAD_CAT_ID   = 68276
ELEMENT_SET_NO = 999
REV_AT_EPOCH   = 315
BSTAR          = -.5016041E-2
MEAN_MOTION_DOT = -.1330618E-1
MEAN_MOTION_DDOT = 0

CCSDS_OMM_VERS = 2.0
CREATION_DATE  = 
ORIGINATOR     = 

OBJECT_NAME    = STARLINK-36989
OBJECT_ID      = 2026-055R
CENTER_NAME    = EARTH
REF_FRAME      = TEME
TIME_SYSTEM    = UTC
MEAN_ELEMENT_THEORY = SGP/SGP4

EPOCH          = 2026-03-31T12:00:02.000160
MEAN_MOTION    = 15.90012831
ECCENTRICITY   = .00008487
INCLINATION    = 53.1574
RA_OF_ASC_NODE = 227.9414
ARG_OF_PERICENTER = 79.6900
MEAN_ANOMALY   = 210.7097

EPHEMERIS_TYPE = 0
CLASSIFICATION_TYPE = U
NORAD_CAT_ID   = 68277
ELEMENT_SET_NO = 999
REV_AT_EPOCH   = 314
BSTAR          = -.49810295E-2
MEAN_MOTION_DOT = -.1346886E-1
MEAN_MOTION_DDOT = 0

CCSDS_OMM_VERS = 2.0
CREATION_DATE  = 
ORIGINATOR     = 

OBJECT_NAME    = STARLINK-36982
OBJECT_ID      = 2026-055S
CENTER_NAME    = EARTH
REF_FRAME      = TEME
TIME_SYSTEM    = UTC
MEAN_ELEMENT_THEORY = SGP/SGP4

EPOCH          = 2026-03-31T12:00:02.000160
MEAN_MOTION    = 15.89950128
ECCENTRICITY   = .00008242
INCLINATION    = 53.1574
RA_OF_ASC_NODE = 227.9505
ARG_OF_PERICENTER = 78.0209
MEAN_ANOMALY   = 208.3174

EPHEMERIS_TYPE = 0
CLASSIFICATION_TYPE = U
NORAD_CAT_ID   = 68278
ELEMENT_SET_NO = 999
REV_AT_EPOCH   = 314
BSTAR          = -.50079454E-2
MEAN_MOTION_DOT = -.1349428E-1
MEAN_MOTION_DDOT = 0

CCSDS_OMM_VERS = 2.0
CREATION_DATE  = 
ORIGINATOR     = 

OBJECT_NAME    = STARLINK-36934
OBJECT_ID      = 2026-055T
CENTER_NAME    = EARTH
REF_FRAME      = TEME
TIME_SYSTEM    = UTC
MEAN_ELEMENT_THEORY = SGP/SGP4

EPOCH          = 2026-03-31T12:00:02.000160
MEAN_MOTION    = 15.89887880
ECCENTRICITY   = .00008303
INCLINATION    = 53.1574
RA_OF_ASC_NODE = 227.9587
ARG_OF_PERICENTER = 74.7350
MEAN_ANOMALY   = 207.5140

EPHEMERIS_TYPE = 0
CLASSIFICATION_TYPE = U
NORAD_CAT_ID   = 68279
ELEMENT_SET_NO = 999
REV_AT_EPOCH   = 314
BSTAR          = -.50113167E-2
MEAN_MOTION_DOT = -.1346441E-1
MEAN_MOTION_DDOT = 0

CCSDS_OMM_VERS = 2.0
CREATION_DATE  = 
ORIGINATOR     = 

OBJECT_NAME    = STARLINK-37070
OBJECT_ID      = 2026-055U
CENTER_NAME    = EARTH
REF_FRAME      = TEME
TIME_SYSTEM    = UTC
MEAN_ELEMENT_THEORY = SGP/SGP4

EPOCH          = 2026-03-31T14:00:01.999872
MEAN_MOTION    = 15.89805797
ECCENTRICITY   = .0001051
INCLINATION    = 53.1575
RA_OF_ASC_NODE = 227.5092
ARG_OF_PERICENTER = 54.9356
MEAN_ANOMALY   = 357.4014

EPHEMERIS_TYPE = 0
CLASSIFICATION_TYPE = U
NORAD_CAT_ID   = 68280
ELEMENT_SET_NO = 999
REV_AT_EPOCH   = 315
BSTAR          = -.50547016E-2
MEAN_MOTION_DOT = -.135181E-1
MEAN_MOTION_DDOT = 0

